METHANESAT              
1 59101U 24043D   25359.94421979  .00003597  00000+0  31834-3 0  9993
2 59101  97.8212 125.5398 0009968 226.1837 133.8561 14.96887750 98729
GOSAT-GW (IBUKI GW)     
1 64694U 25141A   25360.28235927  .00001083  00000+0  19928-3 0  9999
2 64694  98.0440 295.5507 0001426  82.3167 277.8200 14.67562258 26481
GHGSAT-C1               
1 46278U 20061G   25360.25000692  .00026936  00000+0  33922-3 0  9993
2 46278  97.2293  76.1107 0001094   7.2187 352.9086 15.59610675296423
GHGSAT-C12              
1 64529U 25135B   25360.19959798  .00004599  00000+0  22433-3 0  9998
2 64529  97.4611 111.9074 0006311  64.7473 295.4415 15.18782566 28550
GHGSAT-C13              
1 64548U 25135W   25360.28466949  .00003789  00000+0  18144-3 0  9994
2 64548  97.4637 112.3087 0001857  48.7034 311.4361 15.19551813 28585
GHGSAT-C2               
1 47509U 21006DA  25360.12802331  .00006911  00000+0  20384-3 0  9996
2 47509  97.2423  45.3659 0006966  76.1524 284.0495 15.35289789273278
GHGSAT-C3               
1 52737U 22057F   25360.33808258  .00007804  00000+0  25867-3 0  9992
2 52737  97.6348 135.1490 0006722  25.7142 334.4431 15.31547915199051
GHGSAT-C4               
1 52746U 22057Q   25360.29186597  .00007255  00000+0  24078-3 0  9995
2 52746  97.6275 134.1071 0006635  11.5421 348.5971 15.31536958199050
GHGSAT-C5               
1 52744U 22057N   25360.30920625  .00007399  00000+0  24553-3 0  9990
2 52744  97.6435 136.4914 0007586  20.5699 339.5845 15.31525183199058
GHGSAT-C6               
1 56204U 23054AC  25360.26559528  .00014994  00000+0  29564-3 0  9994
2 56204  97.3166 262.6453 0006568 327.5311  32.5534 15.47271394151660
GHGSAT-C7               
1 56209U 23054AH  25360.26615875  .00012235  00000+0  25598-3 0  9996
2 56209  97.3125 261.8337 0006860 317.9099  42.1623 15.45584297151644
GHGSAT-C8               
1 56186U 23054J   25360.23833412  .00014554  00000+0  28689-3 0  9996
2 56186  97.3131 262.0389 0005259 358.1481   1.9748 15.47295252151641
SENTINEL-5P             
1 42969U 17064A   25359.73625459  .00000100  00000+0  68609-4 0  9996
2 42969  98.7802 298.2061 0001064  90.9871 269.1427 14.19520693424954
ENMAP                   
1 52159U 22033C   25360.24373956  .00000285  00000+0  49902-4 0  9999
2 52159  97.9784  79.9636 0001265  84.2461 275.8892 14.74961929201160
PRISMA                  
1 44072U 19015A   25360.28750885  .00001006  00000+0  12834-3 0  9999
2 44072  97.8680  72.5508 0001196  84.2353 275.8998 14.83646087366411
SENTINEL-2A             
1 40697U 15028A   25360.27767216  .00000008  00000+0  19676-4 0  9996
2 40697  98.5725  72.6206 0001042  88.6594 271.4708 14.30810420549004
SENTINEL-2B             
1 42063U 17013A   25360.27043961  .00000059  00000+0  39163-4 0  9994
2 42063  98.5696  72.5256 0001176  89.7264 270.4054 14.30815793459919
SENTINEL-2C             
1 60989U 24157A   25360.16564497  .00000220  00000+0  10054-3 0  9995
2 60989  98.5666  72.4538 0001386 102.8528 257.2809 14.30818046 68245
LANDSAT 8               
1 39084U 13008A   25360.25293331  .00000434  00000+0  10639-3 0  9992
2 39084  98.2055  68.1259 0001048  93.5566 266.5752 14.57115874672712
LANDSAT 9               
1 49260U 21088A   25360.15004825  .00000421  00000+0  10352-3 0  9991
2 49260  98.2076  68.0655 0001109  93.5526 266.5799 14.57111240225803
